ORBCOMM FM20            
1 25416U 98046D   25182.85471779  .00000579  00000+0  23980-3 0  9996
2 25416  44.9939 111.8065 0002390 340.2440  19.8315 14.37231344406370
ORBCOMM FM16            
1 25417U 98046E   25182.90273803  .00000889  00000+0  33163-3 0  9999
2 25417  44.9936 102.9571 0005909   4.5931 355.4970 14.38941459406377
ORBCOMM FM15            
1 25418U 98046F   25183.50752283  .00000754  00000+0  29021-3 0  9990
2 25418  44.9968 105.2753 0005475   6.2728 353.8188 14.38584698406621
ORBCOMM FM14            
1 25419U 98046G   25182.82718486  .00000764  00000+0  29144-3 0  9999
2 25419  44.9957 106.6991 0004453 357.0733   3.0089 14.38946246406329
ORBCOMM FM13            
1 25420U 98046H   25183.50994454  .00000701  00000+0  27798-3 0  9992
2 25420  44.9972 111.5828 0006614 349.3107  10.7600 14.37696541406572
ORBCOMM FM21            
1 25475U 98053A   25183.03320991  .00000393  00000+0  17768-3 0  9990
2 25475  45.0067 199.1874 0003824 282.4888  77.5532 14.37369993399715
ORBCOMM FM22            
1 25476U 98053B   25183.33725025  .00000469  00000+0  19848-3 0  9996
2 25476  45.0057 192.4775 0005610 290.9620  69.0628 14.38414282399810
ORBCOMM FM23            
1 25477U 98053C   25182.75407684  .00000449  00000+0  19526-3 0  9991
2 25477  45.0064 202.6124 0004819 281.9751  78.0556 14.37554170399490
